     2              NAVIGATION DATA                         RINEX VERSION / TYPE
CCRINEXN V1.6.0 UX  CDDIS               06-MAR-16 15:33     PGM / RUN BY / DATE 
IGS BROADCAST EPHEMERIS FILE                                COMMENT             
    0.1583D-07  0.0000D+00 -0.1192D-06  0.0000D+00          ION ALPHA           
    0.1126D+06 -0.1638D+05 -0.2621D+06  0.6554D+05          ION BETA            
   -0.465661287308D-08-0.177635683940D-13   147456     1887 DELTA-UTC: A0,A1,T,W
    17                                                      LEAP SECONDS        
                                                            END OF HEADER       
 8 16  3  5 16  0  0.0-0.263424590230D-04-0.136424205266D-11 0.000000000000D+00
    0.420000000000D+02-0.472812500000D+02 0.472841124302D-08-0.191442742889D+01
   -0.230967998505D-05 0.182577932719D-02 0.221282243729D-05 0.515365672493D+04
    0.576000000000D+06 0.651925802231D-07-0.171809032431D+01 0.912696123123D-07
    0.962038634051D+00 0.338375000000D+03-0.131610861339D+01-0.852249785339D-08
   -0.725030200418D-10 0.100000000000D+01 0.188600000000D+04 0.000000000000D+00
    0.200000000000D+01 0.000000000000D+00 0.465661287308D-08 0.420000000000D+02
    0.568818000000D+06 0.400000000000D+01 0.000000000000D+00 0.000000000000D+00
 9 16  3  5 16  0  0.0 0.838330015540D-04 0.761701812735D-11 0.000000000000D+00
    0.720000000000D+02-0.136250000000D+02 0.522736059769D-08-0.306926508406D+01
   -0.599771738052D-06 0.658713513985D-03 0.538490712643D-05 0.515361809349D+04
    0.576000000000D+06 0.353902578354D-07 0.142321281048D+01 0.260770320892D-07
    0.955178573764D+00 0.275625000000D+03 0.194379452186D+01-0.842177937234D-08
   -0.213937482783D-09 0.000000000000D+00 0.188600000000D+04 0.000000000000D+00
    0.200000000000D+01 0.000000000000D+00 0.139698386192D-08 0.720000000000D+02
    0.568800000000D+06 0.400000000000D+01 0.000000000000D+00 0.000000000000D+00
10 16  3  5 16  0  0.0 0.333199277520D-04-0.704858393874D-11 0.000000000000D+00
    0.720000000000D+02 0.286250000000D+02 0.474126892145D-08-0.104545359388D+01
    0.149011611939D-05 0.123371870723D-02 0.880844891071D-05 0.515368106079D+04
    0.576000000000D+06 0.577419996262D-07 0.378802467375D+00 0.260770320892D-07
    0.959912509375D+00 0.207562500000D+03-0.285457733551D+01-0.806676458455D-08
    0.565737850967D-09 0.100000000000D+01 0.188600000000D+04 0.000000000000D+00
    0.200000000000D+01 0.000000000000D+00 0.232830643654D-08 0.720000000000D+02
    0.568818000000D+06 0.400000000000D+01 0.000000000000D+00 0.000000000000D+00
11 16  3  5 16  0  0.0-0.635356642306D-03-0.170530256582D-11 0.000000000000D+00
    0.780000000000D+02-0.110656250000D+03 0.609882546913D-08 0.549106756020D+00
   -0.588968396187D-05 0.162200727500D-01 0.726617872715D-05 0.515365714836D+04
    0.576000000000D+06-0.201165676117D-06-0.102906372242D+01-0.122934579849D-06
    0.895707003963D+00 0.208812500000D+03 0.150581537386D+01-0.919109713180D-08
   -0.211794536378D-09 0.100000000000D+01 0.188600000000D+04 0.000000000000D+00
    0.200000000000D+01 0.000000000000D+00-0.121071934700D-07 0.780000000000D+02
    0.568896000000D+06 0.400000000000D+01 0.000000000000D+00 0.000000000000D+00
12 16  3  5 16  0  0.0 0.371167901903D-03 0.159161572810D-11 0.000000000000D+00
    0.730000000000D+02 0.887812500000D+02 0.394945022474D-08-0.274446357507D-03
    0.465288758278D-05 0.593956536613D-02 0.572018325329D-05 0.515377335930D+04
    0.576000000000D+06 0.109896063805D-06-0.270802132750D+01 0.119209289551D-06
    0.990551176593D+00 0.284218750000D+03 0.681288498172D+00-0.802140555231D-08
    0.243938732456D-09 0.100000000000D+01 0.188600000000D+04 0.000000000000D+00
    0.200000000000D+01 0.000000000000D+00-0.121071934700D-07 0.730000000000D+02
    0.568800000000D+06 0.400000000000D+01 0.000000000000D+00 0.000000000000D+00
13 16  3  5 16  0  0.0-0.124657526612D-05-0.284217094304D-11 0.000000000000D+00
    0.270000000000D+02-0.158750000000D+02 0.469090968093D-08 0.138506696702D+01
   -0.935047864914D-06 0.463658536319D-02 0.622123479843D-05 0.515367643356D+04
    0.576000000000D+06 0.111758708954D-07 0.154273497306D+01-0.502914190292D-07
    0.971607276920D+00 0.264531250000D+03 0.198212235965D+01-0.809390857235D-08
   -0.374301305437D-09 0.000000000000D+00 0.188600000000D+04 0.000000000000D+00
    0.200000000000D+01 0.000000000000D+00-0.111758708954D-07 0.270000000000D+02
    0.568800000000D+06 0.400000000000D+01 0.000000000000D+00 0.000000000000D+00
14 16  3  5 16  0  0.0-0.757165253162D-06-0.216004991671D-11 0.000000000000D+00
    0.160000000000D+02-0.151562500000D+02 0.486948854803D-08-0.307830556961D+01
   -0.696629285812D-06 0.835633487441D-02 0.611692667007D-05 0.515372476769D+04
    0.576000000000D+06 0.160187482834D-06 0.150620540099D+01-0.126659870148D-06
    0.964106988092D+00 0.260250000000D+03-0.195176004497D+01-0.808247952486D-08
   -0.378587198248D-09 0.100000000000D+01 0.188600000000D+04 0.000000000000D+00
    0.200000000000D+01 0.000000000000D+00-0.931322574616D-08 0.160000000000D+02
    0.568818000000D+06 0.400000000000D+01 0.000000000000D+00 0.000000000000D+00
15 16  3  5 16  0  0.0-0.300293322653D-03-0.181898940355D-11 0.000000000000D+00
    0.970000000000D+02-0.124062500000D+02 0.572595279463D-08 0.238642947102D+01
   -0.711530447006D-06 0.809124100488D-02 0.562891364098D-05 0.515354361725D+04
    0.576000000000D+06-0.180676579475D-06 0.137265501997D+01-0.484287738800D-07
    0.930962468015D+00 0.257406250000D+03 0.475843220277D+00-0.853964142463D-08
   -0.235366946835D-09 0.000000000000D+00 0.188600000000D+04 0.000000000000D+00
    0.280000000000D+01 0.000000000000D+00-0.107102096081D-07 0.970000000000D+02
    0.573480000000D+06 0.400000000000D+01 0.000000000000D+00 0.000000000000D+00
16 16  3  5 16  0  0.0-0.345739535987D-04 0.295585778076D-11 0.000000000000D+00
    0.680000000000D+02 0.966250000000D+02 0.381908771274D-08-0.205934765749D+01
    0.492297112942D-05 0.864159886260D-02 0.631995499134D-05 0.515371885872D+04
    0.576000000000D+06-0.204890966415D-07-0.268927150000D+01-0.115483999252D-06
    0.991060001444D+00 0.275562500000D+03 0.335321610371D+00-0.786532794450D-08
    0.393230670248D-09 0.100000000000D+01 0.188600000000D+04 0.000000000000D+00
    0.200000000000D+01 0.000000000000D+00-0.102445483208D-07 0.680000000000D+02
    0.568800000000D+06 0.000000000000D+00 0.000000000000D+00 0.000000000000D+00
18 16  3  5 16  0  0.0 0.490388832986D-03 0.409272615798D-11 0.000000000000D+00
    0.210000000000D+02 0.392812500000D+02 0.554130224605D-08-0.145213276986D+01
    0.235810875893D-05 0.167593992082D-01 0.838749110699D-05 0.515366177177D+04
    0.576000000000D+06 0.299885869026D-06 0.352798080325D+00 0.363215804100D-06
    0.925400002899D+00 0.196125000000D+03-0.190819663989D+01-0.842392231875D-08
    0.548237121991D-09 0.100000000000D+01 0.188600000000D+04 0.000000000000D+00
    0.200000000000D+01 0.000000000000D+00-0.111758708954D-07 0.210000000000D+02
    0.568818000000D+06 0.400000000000D+01 0.000000000000D+00 0.000000000000D+00
19 16  3  5 16  0  0.0-0.525136943906D-03-0.227373675443D-12 0.000000000000D+00
    0.610000000000D+02-0.546562500000D+02 0.437411077070D-08 0.116624660217D+00
   -0.277347862721D-05 0.107331997715D-01 0.365078449249D-05 0.515360584450D+04
    0.576000000000D+06 0.745058059692D-08-0.161758607043D+01 0.188127160072D-06
    0.972249050304D+00 0.317156250000D+03 0.720968201002D+00-0.839784980415D-08
   -0.817891211309D-10 0.000000000000D+00 0.188600000000D+04 0.000000000000D+00
    0.200000000000D+01 0.000000000000D+00-0.153668224812D-07 0.610000000000D+02
    0.568800000000D+06 0.400000000000D+01 0.000000000000D+00 0.000000000000D+00
21 16  3  5 16  0  0.0-0.513500068337D-03-0.170530256582D-11 0.000000000000D+00
    0.400000000000D+02-0.748750000000D+02 0.499306512406D-08-0.583521737063D+00
   -0.379979610443D-05 0.232470900519D-01 0.112019479275D-04 0.515366316414D+04
    0.576000000000D+06-0.214204192162D-06-0.689064418322D+00 0.288709998131D-06
    0.935913364617D+00 0.157125000000D+03-0.182127206352D+01-0.867821862550D-08
    0.156077929844D-09 0.100000000000D+01 0.188600000000D+04 0.000000000000D+00
    0.200000000000D+01 0.000000000000D+00-0.116415321827D-07 0.400000000000D+02
    0.568818000000D+06 0.400000000000D+01 0.000000000000D+00 0.000000000000D+00
22 16  3  5 16  0  0.0 0.386562664062D-03-0.636646291241D-11 0.000000000000D+00
    0.105000000000D+03 0.289062500000D+02 0.553308761817D-08-0.286002604265D+01
    0.124238431454D-05 0.772740889806D-02 0.904686748982D-05 0.515507580566D+04
    0.576000000000D+06 0.188127160072D-06 0.353551806440D+00-0.111758708954D-06
    0.923257802216D+00 0.184000000000D+03-0.201583551745D+01-0.836606276581D-08
    0.580381318069D-09 0.100000000000D+01 0.188600000000D+04 0.000000000000D+00
    0.280000000000D+01 0.000000000000D+00-0.176951289177D-07 0.105000000000D+03
    0.568818000000D+06 0.400000000000D+01 0.000000000000D+00 0.000000000000D+00
23 16  3  5 16  0  0.0-0.163213815540D-03-0.181898940355D-11 0.000000000000D+00
    0.790000000000D+02-0.121250000000D+02 0.544308386915D-08 0.198996953415D+01
   -0.637024641037D-06 0.105420418549D-01 0.561960041523D-05 0.515370950317D+04
    0.576000000000D+06-0.258907675743D-06 0.142921969694D+01 0.298023223877D-07
    0.946132359422D+00 0.269531250000D+03-0.260748306078D+01-0.852571227300D-08
   -0.263582407837D-09 0.000000000000D+00 0.188600000000D+04 0.000000000000D+00
    0.200000000000D+01 0.000000000000D+00-0.200234353542D-07 0.790000000000D+02
    0.568800000000D+06 0.400000000000D+01 0.000000000000D+00 0.000000000000D+00
